NORAD_CAT_ID,OBJECT_NAME,OBJECT_TYPE,EPOCH,MEAN_MOTION,ECCENTRICITY,INCLINATION,RA_OF_ASC_NODE,ARG_OF_PERICENTER,MEAN_ANOMALY,BSTAR,MEAN_MOTION_DOT,MEAN_MOTION_DDOT,TLE_LINE0,TLE_LINE1,TLE_LINE2,SEMIMAJOR_AXIS,PERIOD,APOGEE,PERIGEE,DECAYED
54011.0,STARLINK-5124,PAYLOAD,2023-01-18 00:38:39,15.08844559,0.0001503,53.2172,311.8299,62.4523,297.6622,0.00025303,3.742e-05,0.0,0 STARLINK-5124,1 54011U 22125AZ  23018.02684528  .00003742  00000-0  25303-3 0  9994,2 54011  53.2172 311.8299 0001503  62.4523 297.6622 15.08844559 16546,6917.866,95.437,540.771,538.692,0.0
54011.0,STARLINK-5124,PAYLOAD,2023-01-18 05:24:48,15.08856399,0.0001501,53.2167,310.9362,63.237,296.8775,0.00059206,9.151e-05,0.0,0 STARLINK-5124,1 54011U 22125AZ  23018.22556432  .00009151  00000-0  59206-3 0  9997,2 54011  53.2167 310.9362 0001501  63.2370 296.8775 15.08856399 16521,6917.83,95.437,540.734,538.6569999999999,0.0
54011.0,STARLINK-5124,PAYLOAD,2023-01-19 02:04:49,15.08861204,0.0001473,53.2173,307.0696,78.539,281.5768,0.00065764,0.000102,0.0,0 STARLINK-5124,1 54011U 22125AZ  23019.08668160  .00010200  00000-0  65764-3 0  9997,2 54011  53.2173 307.0696 0001473  78.5390 281.5768 15.08861204 16708,6917.816,95.436,540.7,538.6619999999999,0.0
54011.0,STARLINK-5124,PAYLOAD,2023-01-19 05:15:34,15.08876847,0.0001345,53.2166,306.476,65.3636,294.7496,0.00080011,0.00012481,0.0,0 STARLINK-5124,1 54011U 22125AZ  23019.21915456  .00012481  00000-0  80011-3 0  9990,2 54011  53.2166 306.4760 0001345  65.3636 294.7496 15.08876847 16725,6917.768,95.435,540.563,538.702,0.0
54011.0,STARLINK-5124,PAYLOAD,2023-01-19 11:37:06,15.08897542,0.0001335,53.2167,305.2867,63.8877,296.2253,0.0012143,0.00019121,0.0,0 STARLINK-5124,1 54011U 22125AZ  23019.48410488  .00019121  00000-0  12143-2 0  9992,2 54011  53.2167 305.2867 0001335  63.8877 296.2253 15.08897542 16712,6917.705,95.434,540.493,538.646,0.0
54011.0,STARLINK-5124,PAYLOAD,2023-01-19 19:34:04,15.08828825,9.17e-05,53.2168,303.8,80.4378,279.6718,2.4802e-05,1.07e-06,0.0,0 STARLINK-5124,1 54011U 22125AZ  23019.81532482  .00000107  00000-0  24802-4 0  9999,2 54011  53.2168 303.8000 0000917  80.4378 279.6718 15.08828825 16812,6917.915,95.438,540.414,539.145,0.0
54011.0,STARLINK-5124,PAYLOAD,2023-01-20 11:27:56,15.08838166,0.0001222,53.2167,300.8291,88.4187,271.6945,0.0011167,0.00017528,0.0,0 STARLINK-5124,1 54011U 22125AZ  23020.47773255  .00017528  00000-0  11167-2 0  9991,2 54011  53.2167 300.8291 0001222  88.4187 271.6945 15.08838166 16864,6917.886,95.438,540.596,538.906,0.0
54011.0,STARLINK-5124,PAYLOAD,2023-01-21 11:18:43,15.08852398,0.0001663,53.2166,296.3648,67.0553,293.0615,0.00088583,0.00013843,0.0,0 STARLINK-5124,1 54011U 22125AZ  23021.47133310  .00013843  00000-0  88583-3 0  9997,2 54011  53.2166 296.3648 0001663  67.0553 293.0615 15.08852398 17065,6917.842,95.437,540.8580000000001,538.557,0.0
54011.0,STARLINK-5124,PAYLOAD,2023-01-22 03:12:34,15.088569199999998,0.000181,53.2153,293.3919,70.226,289.8927,0.00051878,7.982e-05,0.0,0 STARLINK-5124,1 54011U 22125AZ  23022.13372800  .00007982  00000-0  51878-3 0  9994,2 54011  53.2153 293.3919 0001810  70.2260 289.8927 15.08856920 17169,6917.829000000001,95.436,540.946,538.442,0.0
54011.0,STARLINK-5124,PAYLOAD,2023-01-22 17:31:02,15.08833707,0.0001561,53.2127,290.7165,84.7428,275.3742,-0.00012254,-2.237e-05,0.0,0 STARLINK-5124,1 54011U 22125AZ  23022.72989019 -.00002237  00000-0 -12254-3 0  9990,2 54011  53.2127 290.7165 0001561  84.7428 275.3742 15.08833707 17256,6917.9,95.438,540.845,538.685,0.0
54011.0,STARLINK-5124,PAYLOAD,2023-01-24 02:54:08,15.08848117,0.0001051,53.2159,284.4716,84.8836,275.2276,0.00049549,7.608e-05,0.0,0 STARLINK-5124,1 54011U 22125AZ  23024.12093369  .00007608  00000-0  49549-3 0  9992,2 54011  53.2159 284.4716 0001051  84.8836 275.2276 15.08848117 17466,6917.856,95.437,540.448,538.994,0.0
54011.0,STARLINK-5124,PAYLOAD,2023-01-24 20:23:23,15.08845641,0.0001189,53.2157,281.1997,76.6779,283.4346,0.00032526,4.893e-05,0.0,0 STARLINK-5124,1 54011U 22125AZ  23024.84957557  .00004893  00000-0  32526-3 0  9999,2 54011  53.2157 281.1997 0001189  76.6779 283.4346 15.08845641 17576,6917.863,95.437,540.5509999999999,538.906,0.0
54011.0,STARLINK-5124,PAYLOAD,2023-01-25 02:44:55,15.08850397,0.000127,53.2164,280.0107,88.3946,271.7192,0.00035743,5.407e-05,0.0,0 STARLINK-5124,1 54011U 22125AZ  23025.11453309  .00005407  00000-0  35743-3 0  9992,2 54011  53.2164 280.0107 0001270  88.3946 271.7192 15.08850397 17564,6917.849,95.437,540.592,538.835,0.0
54011.0,STARLINK-5124,PAYLOAD,2023-01-25 20:14:10,15.08841341,0.0001402,53.2161,276.7364,107.0848,253.0298,0.00011525,1.547e-05,0.0,0 STARLINK-5124,1 54011U 22125AZ  23025.84317521  .00001547  00000-0  11525-3 0  9990,2 54011  53.2161 276.7364 0001402 107.0848 253.0298 15.08841341 17722,6917.876,95.437,540.711,538.771,0.0
54011.0,STARLINK-5124,PAYLOAD,2023-01-26 02:35:42,15.08846641,0.0001364,53.2167,275.5508,65.2733,294.8401,0.00026475,3.929e-05,0.0,0 STARLINK-5124,1 54011U 22125AZ  23026.10813538  .00003929  00000-0  26475-3 0  9995,2 54011  53.2167 275.5508 0001364  65.2733 294.8401 15.08846641 17716,6917.86,95.437,540.669,538.781,0.0
54011.0,STARLINK-5124,PAYLOAD,2023-01-27 02:26:29,15.08855282,0.0001268,53.2159,271.0911,81.3478,278.7658,0.00047601,7.299e-05,0.0,0 STARLINK-5124,1 54011U 22125AZ  23027.10173071  .00007299  00000-0  47601-3 0  9995,2 54011  53.2159 271.0911 0001268  81.3478 278.7658 15.08855282 17912,6917.834,95.437,540.576,538.821,0.0
54011.0,STARLINK-5124,PAYLOAD,2023-01-27 21:31:07,15.08835078,0.0001283,53.217,267.5205,82.8215,277.2923,-4.9379e-05,-1.074e-05,0.0,0 STARLINK-5124,1 54011U 22125AZ  23027.89661923 -.00001074  00000-0 -49379-4 0  9991,2 54011  53.2170 267.5205 0001283  82.8215 277.2923 15.08835078 17980,6917.895,95.438,540.648,538.873,0.0
54011.0,STARLINK-5124,PAYLOAD,2023-01-28 00:41:54,15.08837893,0.0001147999999999,53.2163,266.9272,81.1325,278.9797,1.3193e-05,-7.8e-07,0.0,0 STARLINK-5124,1 54011U 22125AZ  23028.02909847 -.00000078  00000-0  13193-4 0  9994,2 54011  53.2163 266.9272 0001148  81.1325 278.9797 15.08837893 18056,6917.887,95.438,540.5459999999999,538.9580000000001,0.0
54011.0,STARLINK-5124,PAYLOAD,2023-01-28 19:46:31,15.08845728,0.0001114,53.2164,263.3593,85.0402,275.0717,7.5357e-05,9.12e-06,0.0,0 STARLINK-5124,1 54011U 22125AZ  23028.82397643  .00000912  00000-0  75357-4 0  9993,2 54011  53.2164 263.3593 0001114  85.0402 275.0717 15.08845728 18120,6917.863,95.437,540.499,538.957,0.0
54011.0,STARLINK-5124,PAYLOAD,2023-01-29 00:32:40,15.08847487,0.0001086,53.2164,262.4674,87.507,272.6047,0.00020372,2.957e-05,0.0,0 STARLINK-5124,1 54011U 22125AZ  23029.02269597  .00002957  00000-0  20372-3 0  9999,2 54011  53.2164 262.4674 0001086  87.5070 272.6047 15.08847487 18208,6917.858,95.437,540.474,538.971,0.0
54011.0,STARLINK-5124,PAYLOAD,2023-01-29 16:26:32,15.08837998,0.0001061,53.2164,259.4937,86.7595,273.3519,8.5478e-05,1.073e-05,0.0,0 STARLINK-5124,1 54011U 22125AZ  23029.68510079  .00001073  00000-0  85478-4 0  9992,2 54011  53.2164 259.4937 0001061  86.7595 273.3519 15.08837998 18301,6917.887,95.438,540.485,539.018,0.0
54011.0,STARLINK-5124,PAYLOAD,2023-01-29 21:12:42,15.08837607,0.0001066,53.2165,258.6017,86.1064,274.005,6.3235e-05,7.19e-06,0.0,0 STARLINK-5124,1 54011U 22125AZ  23029.88382113  .00000719  00000-0  63235-4 0  9993,2 54011  53.2165 258.6017 0001066  86.1064 274.0050 15.08837607 18284,6917.888,95.438,540.49,539.015,0.0
54011.0,STARLINK-5124,PAYLOAD,2023-01-30 14:41:56,15.08841085,0.0001025,53.2163,255.3303,83.5669,276.544,3.4136e-05,2.56e-06,0.0,0 STARLINK-5124,1 54011U 22125AZ  23030.61246137  .00000256  00000-0  34136-4 0  9995,2 54011  53.2163 255.3303 0001025  83.5669 276.5440 15.08841085 18398,6917.877,95.437,540.451,539.033,0.0
54011.0,STARLINK-5124,PAYLOAD,2023-01-30 21:03:29,15.08842394,0.0001002,53.2161,254.1409,85.4608,274.6499,5.7246e-05,6.23e-06,0.0,0 STARLINK-5124,1 54011U 22125AZ  23030.87742038  .00000623  00000-0  57246-4 0  9999,2 54011  53.2161 254.1409 0001002  85.4608 274.6499 15.08842394 18431,6917.873,95.437,540.431,539.045,0.0
54011.0,STARLINK-5124,PAYLOAD,2023-01-31 00:14:15,15.08844784,0.000106,53.2161,253.5462,81.9214,278.1898,9.2065e-05,1.178e-05,0.0,0 STARLINK-5124,1 54011U 22125AZ  23031.00989922  .00001178  00000-0  92065-4 0  9994,2 54011  53.2161 253.5462 0001060  81.9214 278.1898 15.08844784 18506,6917.866,95.437,540.464,538.997,0.0
54011.0,STARLINK-5124,PAYLOAD,2023-01-31 14:32:43,15.08842959,0.0001052,53.2165,250.8702,79.3103,280.8007,0.00012126,1.643e-05,0.0,0 STARLINK-5124,1 54011U 22125AZ  23031.60605958  .00001643  00000-0  12126-3 0  9990,2 54011  53.2165 250.8702 0001052  79.3103 280.8007 15.08842959 18544,6917.871,95.437,540.464,539.009,0.0
54011.0,STARLINK-5124,PAYLOAD,2023-01-31 20:54:15,15.08845723,9.75e-05,53.2161,249.6805,79.5678,280.5424,0.00013667,1.888e-05,0.0,0 STARLINK-5124,1 54011U 22125AZ  23031.87101682  .00001888  00000-0  13667-3 0  9996,2 54011  53.2161 249.6805 0000975  79.5678 280.5424 15.08845723 18588,6917.863,95.437,540.402,539.053,0.0
54011.0,STARLINK-5124,PAYLOAD,2023-02-01 00:05:02,15.08846122,0.0001088,53.2163,249.0859,82.2746,277.837,0.00013773,1.905e-05,0.0,0 STARLINK-5124,1 54011U 22125AZ  23032.00349641  .00001905  00000-0  13773-3 0  9999,2 54011  53.2163 249.0859 0001088  82.2746 277.8370 15.08846122 18602,6917.862,95.437,540.479,538.974,0.0
54011.0,STARLINK-5124,PAYLOAD,2023-02-02 14:14:17,15.08842095,0.00016,53.2146,241.9473,104.2657,255.8513,4.932e-05,4.97e-06,0.0,0 STARLINK-5124,1 54011U 22125AZ  23033.59326000  .00000497  00000-0  49320-4 0  9991,2 54011  53.2146 241.9473 0001600 104.2657 255.8513 15.08842095 18848,6917.874,95.437,540.846,538.632,0.0
54011.0,STARLINK-5124,PAYLOAD,2023-02-03 14:05:04,15.08834952,0.00011,53.216,237.4892,95.834,264.2777,9.9538e-05,1.296e-05,0.0,0 STARLINK-5124,1 54011U 22125AZ  23034.58686325  .00001296  00000-0  99538-4 0  9994,2 54011  53.2160 237.4892 0001100  95.8340 264.2777 15.08834952 18993,6917.896,95.438,540.522,539.0,0.0
